[
  {
    "other_transportations": [
      "รถประจำทางธรรมดา \nRegular bus\n[32,505] ",
      "รถตู้\n Van private service",
      "มอเตอร์ไซค์รับจ้าง\n Motorcycle"
    ],
    "nearby_places": [
      "เกาะเกร็ด"
    ],
    "name_th": "ปากเกร็ด",
    "flags": [
      {
        "flag": "green",
        "fee": "13/20/23 Bath"
      }
    ],
    "lng": "100.495284",
    "lat": "13.914802",
    "name_en": "Pakkret",
    "id": "N33"
  },
  {
    "other_transportations": [
      "มอเตอร์ไซค์รับจ้าง\n Motorcycle"
    ],
    "nearby_places": [
      "No data"
    ],
    "name_th": "วัดกลางเกร็ด ",
    "flags": [
      {
        "flag": "green",
        "fee": "13/20/23 Bath"
      }
    ],
    "lng": "100.492234",
    "lat": "13.904579",
    "name_en": "Wat Klongkret",
    "id": "N32"
  },
  {
    "other_transportations": [
      "มอเตอร์ไซค์รับจ้าง\n Motorcycle"
    ],
    "nearby_places": [
      "No data"
    ],
    "name_th": "กระทรวงพาณิชย์",
    "flags": [
      {
        "flag": "green",
        "fee": "13/20/23 Bath"
      }
    ],
    "lng": "100.4850274",
    "lat": "13.8849652",
    "name_en": "Ministry of Commerce",
    "id": "N31"
  },
  {
    "other_transportations": [
      "รถประจำทางธรรมดา \nRegular bus \n[30,32,33,63,64,65,90,97,114,117,175,203] ",
      "รถประจำทางปรับอากาศ \nAir cond bus\n[506,545]",
      "มอเตอร์ไซค์รับจ้าง \nMotorcycle"
    ],
    "nearby_places": [
      "ท่าน้ำนนทบุรี",
      "ตลาดนนท์",
      "กรมราชทัณฑ์"
    ],
    "name_th": "นนทบุรี",
    "flags": [
      {
        "flag": "เรือประจำทาง  Regular boat",
        "fee": "10/12/14  บาท Bath"
      },
      {
        "flag": "เรือด่วนธงส้ม  Orange Flag",
        "fee": "15 บาท Bath"
      },
      {
        "flag": "เรือด่วนธงเหลือง  Yellow Flag",
        "fee": "20/29 บาท Bath"
      },
      {
        "flag": "green",
        "fee": "13/20/23 Bath"
      }
    ],
    "lng": "100.4882925",
    "lat": "13.8418116",
    "name_en": "Nonthaburi",
    "id": "N30"
  },
  {
    "other_transportations": [
      "รถประจำทางธรรมดา\n Regular bus\n [32,33,63,64,65,90,97,117] ",
      "มอเตอร์ไซค์รับจ้าง\n Motorcycle"
    ],
    "nearby_places": [
      "No data"
    ],
    "name_th": "พระราม5 ",
    "flags": [
      {
        "flag": "เรือด่วนธงส้ม  Orange Flag",
        "fee": "15 บาท Bath"
      }
    ],
    "lng": "100.4915434",
    "lat": "13.8332381",
    "name_en": "Rama5 Bridge",
    "id": "N29/1"
  },
  {
    "other_transportations": [
      "รถประจำทางธรรมดา \nRegular bus\n [32,33,63,64,65,90,97,117,175,203] ",
      "รถประจำทางปรับอากาศ\n Air cond bus\n [506]",
      "รถประจำทางปรับอากาศพิเศษ \nAir cond bus (special)\n [15]",
      "มอเตอร์ไซค์รับจ้าง\n Motorcycle"
    ],
    "nearby_places": [
      "สะพานพระราม5"
    ],
    "name_th": "พิบูลย์สงคราม2 ",
    "flags": [
      {
        "flag": "เรือประจำทาง  Regular boat",
        "fee": "10/12/14  บาท Bath"
      }
    ],
    "lng": "100.4915434",
    "lat": "13.8332381",
    "name_en": "Pibul2",
    "id": "N29"
  },
  {
    "other_transportations": [
      "มอเตอร์ไซค์รับจ้าง Motorcycle"
    ],
    "nearby_places": [
      "No data"
    ],
    "name_th": "วัดเขียน  ",
    "flags": [
      {
        "flag": "เรือประจำทาง  Regular boat",
        "fee": "10/12/14  บาท Bath"
      }
    ],
    "lng": "100.4970151",
    "lat": "13.8273729",
    "name_en": "Wat Kien",
    "id": "N28"
  },
  {
    "other_transportations": [
      "มอเตอร์ไซค์รับจ้าง\n Motorcycle"
    ],
    "nearby_places": [
      "No data"
    ],
    "name_th": "วัดตึก  ",
    "flags": [
      {
        "flag": "เรือประจำทาง  Regular boat",
        "fee": "10/12/14  บาท Bath"
      }
    ],
    "lng": "100.498485",
    "lat": "13.8244454",
    "name_en": "Wat Tuek",
    "id": "N27"
  },
  {
    "other_transportations": [
      "รถประจำทางธรรมดา\n Regular bus\n [ 32,33,63,64,65,90,97,117,175,203] ",
      "รถประจำทางปรับอากาศ\n Air cond bus\n [506,543]",
      "รถประจำทางปรับอากาศพิเศษ\n Air cond bus (special)\n[15]",
      "รถตู้ \nVan private service",
      "มอเตอร์ไซค์รับจ้าง\n Motorcycle"
    ],
    "nearby_places": [
      "No data"
    ],
    "name_th": "วัดเขมา  ",
    "flags": [
      {
        "flag": "เรือประจำทาง  Regular boat",
        "fee": "10/12/14  บาท Bath"
      }
    ],
    "lng": "100.4994291",
    "lat": "13.8224035",
    "name_en": "Wat Khema",
    "id": "N26"
  },
  {
    "other_transportations": [
      "รถประจำทางธรรมดา\nRegular bus\n [32,33,63,64,65,90,97,117,175,203] ",
      "รถประจำทางปรับอากาศ\n Air cond bus\n [506,543]",
      "รถประจำทางปรับอากาศพิเศษ\n Air cond bus (special)\n[15]",
      "รถตู้\n Van private service",
      "มอเตอร์ไซค์รับจ้าง\n Motorcycle"
    ],
    "nearby_places": [
      "No data"
    ],
    "name_th": "พิบูลย์สงคราม1  ",
    "flags": [
      {
        "flag": "เรือประจำทาง  Regular boat",
        "fee": "10/12/14  บาท Bath"
      }
    ],
    "lng": "100.5030769",
    "lat": "13.8171839",
    "name_en": "Pibul1",
    "id": "N25"
  },
  {
    "other_transportations": [
      "รถประจำทางธรรมดา\n Regular bus\n [18,49,50,110] ",
      "รถประจำทางปรับอากาศพิเศษ\n Air cond bus (special)\n[15]",
      "มอเตอร์ไซค์รับจ้าง\n Motorcycle"
    ],
    "nearby_places": [
      "สะพานพระราม7",
      "มหาวิทยาลัยเทคโนโลยีราชมงคลพระนครเหนือ",
      "โรงพยาบาลยันฮี"
    ],
    "name_th": "พระราม7  ",
    "flags": [
      {
        "flag": "เรือประจำทาง  Regular boat",
        "fee": "10/12/14  บาท Bath"
      },
      {
        "flag": "เรือด่วนธงส้ม  Orange Flag",
        "fee": "15 บาท Bath"
      },
      {
        "flag": "เรือด่วนธงเหลือง  Yellow Flag",
        "fee": "20/29 บาท Bath"
      },
      {
        "flag": "เรือด่วนธงเขียว green",
        "fee": "13/20/23 Bath"
      }
    ],
    "lng": "100.5118853",
    "lat": "13.8134541",
    "name_en": "Rama7 Bridge",
    "id": "N24"
  },
  {
    "other_transportations": [
      "รถประจำทางธรรมดา\n Regular bus\n [5,32,33,49,64,90,117] ",
      "รถประจำทางปรับอากาศ\n Air cond bus\n [506]",
      "มอเตอร์ไซค์รับจ้าง\n Motorcycle"
    ],
    "nearby_places": [
      "No data"
    ],
    "name_th": "วัดสร้อยทอง   ",
    "flags": [
      {
        "flag": "เรือประจำทาง  Regular boat",
        "fee": "10/12/14  บาท Bath"
      }
    ],
    "lng": "100.5140632",
    "lat": "13.8114538",
    "name_en": "Wat Soi Thong",
    "id": "N23"
  },
  {
    "other_transportations": [
      "รถประจำทางธรรมดา \nRegular bus\n [5,32,33,49,64,90,117] ",
      "รถประจำทางปรับอากาศ\n Air cond bus\n [506]",
      "มอเตอร์ไซค์รับจ้าง\n Motorcycle"
    ],
    "nearby_places": [
      "No data"
    ],
    "name_th": "บางโพ  ",
    "flags": [
      {
        "flag": "เรือประจำทาง  Regular boat",
        "fee": "10/12/14  บาท Bath"
      }
    ],
    "lng": "100.5170351",
    "lat": "13.8047337",
    "name_en": "BangPo",
    "id": "N22"
  },
  {
    "other_transportations": [
      "รถประจำทางธรรมดา \nRegular bus\n [3,16,64,65,66,90,117] ",
      "รถประจำทางปรับอากาศ \nAir cond bus\n [505]",
      "รถตู้\n Van private service",
      "มอเตอร์ไซค์รับจ้าง \nMotorcycle"
    ],
    "nearby_places": [
      "โรงเรียนโยธินบูรณะ",
      "โรงเรียนกองทัพบกอุปถัมป์"
    ],
    "name_th": "เกียกกาย ",
    "flags": [
      {
        "flag": "เรือประจำทาง  Regular boat",
        "fee": "10/12/14  บาท Bath"
      },
      {
        "flag": "เรือด่วนธงส้ม  Orange Flag",
        "fee": "15 บาท Bath"
      }
    ],
    "lng": "100.516327",
    "lat": "13.7977633",
    "name_en": "Kiak Kia",
    "id": "N21"
  },
  {
    "other_transportations": [
      "รถประจำทางธรรมดา\n Regular bus\n [3,16,30,32,33,49,64,65,66,90,117] ",
      "รถประจำทางปรับอากาศ\n Air cond bus\n [505,506]",
      "รถตู้\n Van private service",
      "มอเตอร์ไซค์รับจ้าง \nMotorcycle"
    ],
    "nearby_places": [
      "No data"
    ],
    "name_th": "เขียวไข่กา ",
    "flags": [
      {
        "flag": "เรือประจำทาง  Regular boat",
        "fee": "10/12/14  บาท Bath"
      }
    ],
    "lng": "100.5120784",
    "lat": "13.7925223",
    "name_en": "Kheaw Khia Ka",
    "id": "N20"
  },
  {
    "other_transportations": [
      "รถประจำทางธรรมดา\n Regular bus\n [3,16,30,32,33,49,64,65,66] ",
      "รถประจำทางปรับอากาศ\n Air cond bus\n [505,506]",
      "รถตู้\n Van private service",
      "มอเตอร์ไซค์รับจ้าง\n Motorcycle"
    ],
    "nearby_places": [
      "กรมชลประทาน",
      "กระทรวงเกษตรและสหกรณ์"
    ],
    "name_th": "กรมชลประทาน ",
    "flags": [
      {
        "flag": "เรือประจำทาง  Regular boat",
        "fee": "10/12/14  บาท Bath"
      }
    ],
    "lng": "100.5079478",
    "lat": "13.7881565",
    "name_en": "Irrigation Dept",
    "id": "N19"
  },
  {
    "other_transportations": [
      "รถประจำทางธรรมดา\n Regular bus\n [3,16,64,65,66,90,117] ",
      "รถประจำทางปรับอากาศ\n Air cond bus\n [505,506]",
      "รถตู้\n Van private service",
      "มอเตอร์ไซค์รับจ้าง\n Motorcycle"
    ],
    "nearby_places": [
      "วิทยาลัยเทคโนโลยีวิมล ศรีย่าน"
    ],
    "name_th": "พายัพ   ",
    "flags": [
      {
        "flag": "เรือประจำทาง  Regular boat",
        "fee": "10/12/14  บาท Bath"
      },
      {
        "flag": "เรือด่วนธงส้ม  Orange Flag",
        "fee": "15 บาท Bath"
      }
    ],
    "lng": "100.5079478",
    "lat": "13.7881565",
    "name_en": "Payap",
    "id": "N18"
  },
  {
    "other_transportations": [
      "มอเตอร์ไซค์รับจ้าง\n Motorcycle"
    ],
    "nearby_places": [
      "No data"
    ],
    "name_th": "วัดเทพากร  ",
    "flags": [
      {
        "flag": "เรือประจำทาง  Regular boat",
        "fee": "10/12/14  บาท Bath"
      }
    ],
    "lng": "100.5020386",
    "lat": "13.7859939",
    "name_en": "Wat Thepakorn",
    "id": "N17/1"
  },
  {
    "other_transportations": [
      "รถประจำทางธรรมดา\n Regular bus\n [18,175,203] ",
      "มอเตอร์ไซค์รับจ้าง\n Motorcycle"
    ],
    "nearby_places": [
      "No data"
    ],
    "name_th": "วัดเทพนารี ",
    "flags": [
      {
        "flag": "เรือประจำทาง  Regular boat",
        "fee": "10/12/14  บาท Bath"
      }
    ],
    "lng": "100.5024629",
    "lat": "13.7844151",
    "name_en": "Wat Thepnahree",
    "id": "N17"
  },
  {
    "other_transportations": [
      "รถประจำทางธรรมดา\n Regular bus\n [18,28,56,66,108,110,125,164] ",
      "รถประจำทางปรับอากาศ \nAir cond bus\n [510,515]",
      "รถประจำทางปรับอากาศพิเศษ \nAir cond bus (special)\n [4]",
      "มอเตอร์ไซค์รับจ้าง\n Motorcycle"
    ],
    "nearby_places": [
      "สะพานกรุงธน",
      "โรงเรียนโยนออฟอาร์คเทคโนโลยี"
    ],
    "name_th": "สะพานกรุงธน (ซังฮี้) ",
    "flags": [
      {
        "flag": "เรือประจำทาง  Regular boat",
        "fee": "10/12/14  บาท Bath"
      },
      {
        "flag": "เรือด่วนธงส้ม  Orange Flag",
        "fee": "15 บาท Bath"
      },
      {
        "flag": "เรือด่วนธงเขียว green",
        "fee": "13/20/23 Bath"
      }
    ],
    "lng": "100.5017006",
    "lat": "13.7818468",
    "name_en": "Krung Thon Bridge (Sung Hi)",
    "id": "N16"
  },
  {
    "other_transportations": [
      "รถประจำทางธรรมดา\nRegular bus\n [3,9,19,30,32,33,43,49,53,64,65] ",
      "รถประจำทางปรับอากาศ\n Air cond bus\n [32,64,506,524]",
      "รถตู้ \nVan private service",
      "มอเตอร์ไซค์รับจ้าง\n Motorcycle"
    ],
    "nearby_places": [
      "ตลาดเทเวศร์",
      "หอสมุดแห่งชาติ",
      "วัดเทวราชกุญชรวรวิหาร",
      "มหาวิทยาลัยเทคโนโลยีราชมงคลพระนคร",
      "มหาวิทยาลัยเทคโนโลยีราชมงคลวิทยาเขตโชติเวช"
    ],
    "name_th": "เทเวศร์   ",
    "flags": [
      {
        "flag": "เรือประจำทาง  Regular boat",
        "fee": "10/12/14  บาท Bath"
      },
      {
        "flag": "เรือด่วนธงส้ม  Orange Flag",
        "fee": "15 บาท Bath"
      },
      {
        "flag": "เรือด่วนธงเหลือง  Yellow Flag",
        "fee": "20/29 บาท Bath"
      },
      {
        "flag": "เรือด่วนธงเขียว green",
        "fee": "13/20/23 Bath"
      }
    ],
    "lng": "100.4996819",
    "lat": "13.7727729",
    "name_en": "Thewet",
    "id": "N15"
  },
  {
    "other_transportations": [
      "รถประจำทางธรรมดา\n Regular bus\n [3,9,19,30,32,33,43,49,53,64,65] ",
      "รถประจำทางปรับอากาศ\n Air cond bus\n [ 32,64,506,524]",
      "รถตู้\n Van private service ",
      "มอเตอร์ไซค์รับจ้าง\n Motorcycle"
    ],
    "nearby_places": [
      "สะพานพระราม8",
      "สวนหลวง ร.8"
    ],
    "name_th": "พระราม8  ",
    "flags": [
      {
        "flag": "เรือประจำทาง  Regular boat",
        "fee": "10/12/14  บาท Bath"
      }
    ],
    "lng": "100.4962755",
    "lat": "13.7674897",
    "name_en": "Ram8 Bridge",
    "id": "N14"
  },
  {
    "other_transportations": [
      "รถประจำทางธรรมดา \nRegular bus\n [3,6,15,43,82] ",
      "มอเตอร์ไซค์รับจ้าง\n Motorcycle"
    ],
    "nearby_places": [
      "ถนนข้าวสาร",
      "บางลำภู",
      "ป้อมพระสุเมรุ",
      "สวนสันติชัยปราการ",
      "วัดชนะสงครามราชวรมหาวิหาร"
    ],
    "name_th": "พระอาทิตย์",
    "flags": [
      {
        "flag": "เรือประจำทาง  Regular boat",
        "fee": "10/12/14  บาท Bath"
      },
      {
        "flag": "เรือด่วนธงส้ม  Orange Flag",
        "fee": "15 บาท Bath"
      },
      {
        "flag": "เรือท่องเที่ยวธงฟ้า Blue Flag ",
        "Fee": "150 Baht/Day (Unlimited)"
      }
    ],
    "lng": "100.4934645",
    "lat": "13.7648221",
    "name_en": "Phra Arthit",
    "id": "N13"
  },
  {
    "other_transportations": [
      "รถประจำทางธรรมดา \nRegular bus \n[19,30,42,57,68,79,80,123,124,127,165,169,201,203] ",
      "รถประจำทางปรับอากาศ \nAir cond bus\n [170,171,174,183,503,507,509,511,516]",
      "รถประจำทางปรับอากาศพิเศษ \nAir cond bus (special)\n [10] ",
      "มอเตอร์ไซค์รับจ้าง\n Motorcycle"
    ],
    "nearby_places": [
      "สะพานพระปิ่นเกล้า",
      "เซ็นทรัลปิ่นเกล้า",
      "พาต้าปิ่นเกล้า"
    ],
    "name_th": "พระปิ่นเกล้า ",
    "flags": [
      {
        "flag": "เรือประจำทาง  Regular boat",
        "fee": "10/12/14  บาท Bath"
      },
      {
        "flag": "เรือด่วนธงส้ม  Orange Flag",
        "fee": "15 บาท Bath"
      },
      {
        "flag": "เรือด่วนธงเหลือง  Yellow Flag",
        "fee": "20/29 บาท Bath"
      },
      {
        "flag": "เรือด่วนธงเขียว green",
        "fee": "13/20/23 Bath"
      }
    ],
    "lng": "100.4912383",
    "lat": "13.7631287",
    "name_en": "Phra Pin Klao Bridge",
    "id": "N12"
  },
  {
    "other_transportations": [
      "รถประจำทางธรรมดา\nRegular bus\n [19,56,57,91,149,157] ",
      "มอเตอร์ไซค์รับจ้าง\n Motorcycle"
    ],
    "nearby_places": [
      "No data"
    ],
    "name_th": "ท่ารถไฟ ",
    "flags": [
      {
        "flag": "เรือประจำทาง  Regular boat",
        "fee": "10/12/14  บาท Bath"
      }
    ],
    "lng": "100.488422",
    "lat": "13.7585643",
    "name_en": "Thonburi Railway",
    "id": "N11"
  },
  {
    "other_transportations": [
      "รถประจำทางธรรมดา\n Regular bus\n [19,57,91,149,157] ",
      "มอเตอร์ไซค์รับจ้าง \nMotorcycle"
    ],
    "nearby_places": [
      "โรงพยาบาลศิริราช",
      "ตลาดวังหลัง",
      "วัดระฆัง"
    ],
    "name_th": "วังหลัง (พรานนก)",
    "flags": [
      {
        "flag": "เรือประจำทาง  Regular boat",
        "fee": "10/12/14  บาท Bath"
      },
      {
        "flag": "เรือด่วนธงส้ม  Orange Flag",
        "fee": "15 บาท Bath"
      },
      {
        "flag": "เรือด่วนธงเหลือง  Yellow Flag",
        "fee": "20/29 บาท Bath"
      },
      {
        "flag": "เรือด่วนธงเขียว green",
        "fee": "13/20/23 Bath"
      },
      {
        "flag": "เรือท่องเที่ยวธงฟ้า Blue Flag ",
        "Fee": "150 Baht/Day (Unlimited)"
      }
    ],
    "lng": "100.4880733",
    "lat": "13.7565218",
    "name_en": "Wang Lang (Prannok)",
    "id": "N10"
  },
  {
    "other_transportations": [
      "มอเตอร์ไซค์รับจ้าง\n Motorcycle"
    ],
    "nearby_places": [
      "No data"
    ],
    "name_th": "มหาราช ",
    "flags": [
      {
        "flag": "เรือประจำทาง  Regular boat",
        "fee": "10/12/14  บาท Bath"
      }
    ],
    "lng": "100.4878534",
    "lat": "13.7557142",
    "name_en": "Maharaj",
    "id": "N*"
  },
  {
    "other_transportations": [
      "รถประจำทางธรรมดา\n Regular bus\n [1,25,32,44,47,53,82,91,123,124] ",
      "รถประจำทางปรับอากาศ\n Air cond bus \n [501,508,512]",
      "รถตู้ \nVan private service",
      "มอเตอร์ไซค์รับจ้าง \nMotorcycle"
    ],
    "nearby_places": [
      "สนามหลวง",
      "วัดพระศรีรัตนศาสดาราม",
      "กรมศิลปกร"
    ],
    "name_th": "ท่าช้าง ",
    "flags": [
      {
        "flag": "เรือประจำทาง  Regular boat",
        "fee": "10/12/14  บาท Bath"
      },
      {
        "flag": "เรือด่วนธงส้ม  Orange Flag",
        "fee": "15 บาท Bath"
      },
      {
        "flag": "เรือด่วนธงเขียว green",
        "fee": "13/20/23 Bath"
      }
    ],
    "lng": "100.4873908",
    "lat": "13.751353",
    "name_en": "Tha Chang",
    "id": "N9"
  },
  {
    "other_transportations": [
      "รถประจำทางธรรมดา\n Regular bus\n [1,25,32,44,48,53] ",
      "รถประจำทางปรับอากาศ\n Air cond bus\n  [508,512]",
      "รถตู้\n Van private service",
      "มอเตอร์ไซค์รับจ้าง\n Motorcycle"
    ],
    "nearby_places": [
      "วัดพระเชตุพนวิมลมังคลาราม",
      "วัดอรุณราชวรมหาวิหาร",
      "หอประชุมกองทัพเรือ",
      "พระที่นั่งราชกิจวินิจฉัย",
      "ท่าราชวรดิษฐ์"
    ],
    "name_th": "ท่าเตียน ",
    "flags": [
      {
        "flag": "เรือประจำทาง  Regular boat",
        "fee": "10/12/14  บาท Bath"
      },
      {
        "flag": "เรือด่วนธงส้ม  Orange Flag",
        "fee": "15 บาท Bath"
      },
      {
        "flag": "เรือท่องเที่ยวธงฟ้า Blue Flag ",
        "Fee": "150 Baht/Day (Unlimited)"
      }
    ],
    "lng": "100.4884208",
    "lat": "13.7460224",
    "name_en": "Tha Tien",
    "id": "N8"
  },
  {
    "other_transportations": [
      "รถประจำทางธรรมดา\n Regular bus\n [7ก,8,12,42,43,73ก82] ",
      "มอเตอร์ไซค์รับจ้าง \nMotorcycle"
    ],
    "nearby_places": [
      "โรงเรียนราชินี",
      "มิวเซียมสยาม",
      "โรงเรียนวัดราชบพิธ"
    ],
    "name_th": "ราชินี ",
    "flags": [
      {
        "flag": "เรือประจำทาง  Regular boat",
        "fee": "10/12/14  บาท Bath"
      }
    ],
    "lng": "100.4915129",
    "lat": "13.7419416",
    "name_en": "Rajinee",
    "id": "N7"
  },
  {
    "other_transportations": [
      "รถประจำทางธรรมดา\n Regular bus\n [7ก,8,12,42,43,73,73ก82] ",
      "มอเตอร์ไซค์รับจ้าง\n Motorcycle"
    ],
    "nearby_places": [
      "สะพานพุทธ",
      "สะพานพระปิ่นเกล้า",
      "ปากคลองตลาด",
      "พาหุรัด",
      "โรงเรียนสวนกุหลาบวิทยาลัย",
      "วัดราชบูรณราชวรวิหาร",
      "วิทยาลัยเพาะช่าง"
    ],
    "name_th": "สะพานพุทธ ",
    "flags": [
      {
        "flag": "เรือประจำทาง  Regular boat",
        "fee": "10/12/14  บาท Bath"
      },
      {
        "flag": "เรือด่วนธงส้ม  Orange Flag",
        "fee": "15 บาท Bath"
      }
    ],
    "lng": "100.4969417",
    "lat": "13.7394873",
    "name_en": "Mamorial Bridge",
    "id": "N6"
  },
  {
    "other_transportations": [
      "รถประจำทางธรรมดา\n Regular bus\n [204] ",
      "รถประจำทางปรับอากาศ \nAir cond bus\n  [204]",
      "มอเตอร์ไซค์รับจ้าง\n Motorcycle"
    ],
    "nearby_places": [
      "เยาวราช",
      "สำเพ็ง",
      "ปากคลองตลาด",
      "พาหุรัด",
      "ท่าดินแดง",
      "วัดไตรมิตร"
    ],
    "name_th": "ราชวงศ์   ",
    "flags": [
      {
        "flag": "เรือประจำทาง  Regular boat",
        "fee": "10/12/14  บาท Bath"
      },
      {
        "flag": "เรือด่วนธงส้ม  Orange Flag",
        "fee": "15 บาท Bath"
      },
      {
        "flag": "เรือด่วนธงเหลือง  Yellow Flag",
        "fee": "20/29 บาท Bath"
      },
      {
        "flag": "เรือด่วนธงเขียว green",
        "fee": "13/20/23 Bath"
      },
      {
        "flag": "เรือท่องเที่ยวธงฟ้า Blue Flag ",
        "Fee": "150 Baht/Day (Unlimited)"
      }
    ],
    "lng": "100.502687",
    "lat": "13.738049",
    "name_en": "Rachawongse",
    "id": "N5"
  },
  {
    "other_transportations": [
      "รถประจำทางธรรมดา \nRegular bus\n [1,35,75] ",
      "มอเตอร์ไซค์รับจ้าง\n Motorcycle"
    ],
    "nearby_places": [
      "กรมเจ้าท่า",
      "โรงเรียนกุหลาบวิทยาลัย",
      "กรมการขนส่งทางน้ำและพาณิชนาวี"
    ],
    "name_th": "กรมเจ้าท่า   ",
    "flags": [
      {
        "flag": "เรือประจำทาง  Regular boat",
        "fee": "10/12/14  บาท Bath"
      },
      {
        "flag": "เรือด่วนธงส้ม  Orange Flag",
        "fee": "15 บาท Bath"
      }
    ],
    "lng": "100.5097427",
    "lat": "13.7331229",
    "name_en": "Marine Dept",
    "id": "N4"
  },
  {
    "other_transportations": [
      "รถประจำทางธรรมดา \nRegular bus\n [1,16,35,36,45,75,93] ",
      "รถประจำทางปรับอากาศพิเศษ\n Air cond bus (special)\n [6]",
      "รถตู้ \nVan private service",
      "มอเตอร์ไซค์รับจ้าง \nMotorcycle"
    ],
    "nearby_places": [
      "ไปรษณีย์กลาง",
      "โรงแรมรอยัล ออคิด เชอราตัน",
      "ริเวอร์ซิตี้",
      "วิทยาลัยสารพัดช่างสี่พระยา",
      "คลองสาน"
    ],
    "name_th": "สี่พระยา   ",
    "flags": [
      {
        "flag": "เรือประจำทาง  Regular boat",
        "fee": "10/12/14  บาท Bath"
      },
      {
        "flag": "เรือด่วนธงส้ม  Orange Flag",
        "fee": "15 บาท Bath"
      },
      {
        "flag": "เรือด่วนธงเหลือง  Yellow Flag",
        "fee": "20/29 บาท Bath"
      },
      {
        "flag": "เรือด่วนธงเขียว green",
        "fee": "13/20/23 Bath"
      },
      {
        "flag": "เรือท่องเที่ยวธงฟ้า Blue Flag ",
        "Fee": "150 Baht/Day (Unlimited)"
      }
    ],
    "lng": "100.5107029",
    "lat": "13.7286987",
    "name_en": "Si Phraya",
    "id": "N3"
  },
  {
    "other_transportations": [
      "รถประจำทางธรรมดา\n Regular bus\n [1,16,35,36,45,75,93] ",
      "รถประจำทางปรับอากาศพิเศษ \nAir cond bus (special)\n [6]",
      "รถตู้ \nVan private service",
      "มอเตอร์ไซค์รับจ้าง\n Motorcycle"
    ],
    "nearby_places": [
      "สถานีเอกอัครราชทูตฝรั่งเศสประจำประเทศไทย",
      "บางรัก",
      "อาคารโทรคมนาคม"
    ],
    "name_th": "วัดม่วงแค ",
    "flags": [
      {
        "flag": "เรือประจำทาง  Regular boat",
        "fee": "10/12/14  บาท Bath"
      }
    ],
    "lng": "100.5148048",
    "lat": "13.7261633",
    "name_en": "Wat Muang Kae",
    "id": "N2"
  },
  {
    "other_transportations": [
      "รถประจำทางธรรมดา\nRegular bus\n [1,35,75] ",
      "มอเตอร์ไซค์รับจ้าง\nMotorcycle"
    ],
    "nearby_places": [
      "โรงแรมโอเรียนเท็ล",
      "โรงเรียนอัสสัมชัญ",
      "โรงแรมแมนดาริน โอเรียนเต็ล กรุงเทพ"
    ],
    "name_th": "โอเรียนเท็ล    ",
    "flags": [
      {
        "flag": "เรือประจำทาง  Regular boat",
        "fee": "10/12/14  บาท Bath"
      },
      {
        "flag": "เรือด่วนธงส้ม  Orange Flag",
        "fee": "15 บาท Bath"
      },
      {
        "flag": "เรือท่องเที่ยวธงฟ้า Blue Flag ",
        "Fee": "150 Baht/Day (Unlimited)"
      }
    ],
    "lng": "100.514794",
    "lat": "13.7232554",
    "name_en": "Oriental",
    "id": "N1"
  },
  {
    "other_transportations": [
      "รถประจำทางธรรมดา\nRegular bus\n [1,15,17,35,75,115,116,163] ",
      "รถประจำทางปรับอากาศ\nAir cond bus\n  [ 504]",
      "รถประจำทางปรับอากาศพิเศษ\nAir cond bus (special)\n [ 20 ]",
      "มอเตอร์ไซค์รับจ้าง\nMotorcycle",
      "รถไฟฟ้า สะพานตากสิน\nBTS"
    ],
    "nearby_places": [
      "สะพานสมเด็จพระเจ้าตากสิน",
      "วัดยานนาวา",
      "มหาวิทยาลัยเทคโนโลยีราชมงคลกรุงเทพ วิทยาเขตพระนครใต้",
      "ศาลแพ่งกรุงเทพใต้",
      "วัดสุทธิวราราม",
      "โรงพยาบาลเลิศสิน",
      "โรงแรมแชงกรี ลา",
      "โรงแรมมิลเลนเนียม ฮิลตัน กรุงเทพ"
    ],
    "name_th": "สาทร (ตากสิน)  ",
    "flags": [
      {
        "flag": "เรือประจำทาง  Regular boat",
        "fee": "10/12/14  บาท Bath"
      },
      {
        "flag": "เรือด่วนธงส้ม  Orange Flag",
        "fee": "15 บาท Bath"
      },
      {
        "flag": "เรือด่วนธงเหลือง  Yellow Flag",
        "fee": "20/29 บาท Bath"
      },
      {
        "flag": "เรือด่วนธงเขียว green",
        "fee": "13/20/23 Bath"
      },
      {
        "flag": "เรือท่องเที่ยวธงฟ้า Blue Flag ",
        "Fee": "150 Baht/Day (Unlimited)"
      }
    ],
    "lng": "100.5130881",
    "lat": "13.7187059",
    "name_en": "Sathorn (Taksin)",
    "id": "C"
  },
  {
    "other_transportations": [
      "รถประจำทางธรรมดา\n Regular bus\n [3,89,111] ",
      "มอเตอร์ไซค์รับจ้าง\n Motorcycle"
    ],
    "nearby_places": [
      "No data"
    ],
    "name_th": "วัดเศวตฉัตร  ",
    "flags": [
      {
        "flag": "เรือประจำทาง  Regular boat",
        "fee": "10/12/14  บาท Bath"
      }
    ],
    "lng": "100.5084367",
    "lat": "13.712382",
    "name_en": "Wat Sawatachat",
    "id": "S1"
  },
  {
    "other_transportations": [
      "รถประจำทางธรรมดา\n Regular bus\n [1,15,17,22,75,163] ",
      "รถประจำทางปรับอากาศ\n Air cond bus\n  [504] ",
      "รถประจำทางปรับอากาศพิเศษ\n Air cond bus (special)\n   [20] ",
      "รถตู้ \nVan private service",
      "มอเตอร์ไซค์รับจ้าง\n Motorcycle"
    ],
    "nearby_places": [
      "No data"
    ],
    "name_th": "วัดวรจรรยาวาส  ",
    "flags": [
      {
        "flag": "เรือประจำทาง  Regular boat",
        "fee": "10/12/14  บาท Bath"
      },
      {
        "flag": "เรือด่วนธงส้ม  Orange Flag",
        "fee": "15 บาท Bath"
      }
    ],
    "lng": "100.5048463",
    "lat": "13.7084121",
    "name_en": "Wat Worachanyawas",
    "id": "S2"
  },
  {
    "other_transportations": [
      "รถประจำทางธรรมดา\n Regular bus\n [1,15,17,22,75,163] ",
      "รถประจำทางปรับอากาศ\n Air cond bus\n  [504] ",
      "รถประจำทางปรับอากาศพิเศษ\n Air cond bus (special)\n  [20] ",
      "รถตู้ \nVan private service",
      "มอเตอร์ไซค์รับจ้าง\n Motorcycle"
    ],
    "nearby_places": [
      "โรงแรมแม่น้ำ ริเวอร์ไซด์",
      "เอเชียทีค"
    ],
    "name_th": "วัดราชสิงขร  ",
    "flags": [
      {
        "flag": "เรือประจำทาง  Regular boat",
        "fee": "10/12/14  บาท Bath"
      },
      {
        "flag": "เรือด่วนธงส้ม  Orange Flag",
        "fee": "15 บาท Bath"
      }
    ],
    "lng": "100.501574",
    "lat": "13.7057385",
    "name_en": "Wat Rajsingkorn",
    "id": "S3"
  },
  {
    "other_transportations": [
      "รถประจำทางธรรมดา \nRegular bus\n [6,17,88] ",
      "มอเตอร์ไซค์รับจ้าง\n Motorcycle"
    ],
    "nearby_places": [
      "บิ๊กซีราษฏร์บูรณะ"
    ],
    "name_th": "ราษฎร์บูรณะ   ",
    "flags": [
      {
        "flag": "เรือด่วนธงเหลือง  Yellow Flag",
        "fee": "20/29 บาท Bath"
      }
    ],
    "lng": "100.5009313",
    "lat": "13.6849068",
    "name_en": "Ratburana",
    "id": "S4"
  }
]
